IRIDIUM 171             
1 43929U 19002H   23323.61195458  .00000277  00000+0  92024-4 0  9997
2 43929  86.4013  26.8657 0002317  93.2421 266.9040 14.34215647254149
IRIDIUM 170             
1 43930U 19002J   23323.56002097  .00000933  00000+0  14415-3 0  9995
2 43930  86.6132  26.7394 0002433  98.1083 262.0410 14.72245452260862
IRIDIUM 167             
1 43931U 19002K   23323.60559177  .00000085  00000+0  23254-4 0  9997
2 43931  86.4004  26.6805 0002302  95.2618 264.8841 14.34217809254147
IRIDIUM 181             
1 56726U 23068S   23323.80063438  .00000440  00000+0  12414-3 0  9992
2 56726  86.8633  70.1197 0003252  97.0931 263.0640 14.43580032 26782
IRIDIUM 177             
1 56727U 23068T   23323.30813434  .00001568  00000+0  20291-3 0  9991
2 56727  86.1995  55.4656 0002137  92.1138 268.0327 14.80226795 27185
IRIDIUM 174             
1 56728U 23068U   23323.77590287  .00001511  00000+0  19532-3 0  9995
2 56728  86.2004  55.3304 0002016  98.8186 261.3263 14.80232528 27253
IRIDIUM 178             
1 56729U 23068V   23323.56776829  .00001540  00000+0  19922-3 0  9996
2 56729  86.5794  62.9099 0002138  91.2902 268.8565 14.80233982 27225
IRIDIUM 179             
1 56730U 23068W   23323.76512265  .00001521  00000+0  19677-3 0  9998
2 56730  86.6803  64.3097 0001913 100.4168 259.7269 14.80237270 27257
